[{"OBJECT_NAME":"BLUEBON","OBJECT_ID":"2025-009CH","EPOCH":"2026-03-09T16:52:33.225312","MEAN_MOTION":15.29047254,"ECCENTRICITY":0.00011933,"INCLINATION":97.4017,"RA_OF_ASC_NODE":152.2033,"ARG_OF_PERICENTER":43.39,"MEAN_ANOMALY":316.7434,"EPHEMERIS_TYPE":0,"CLASSIFICATION_TYPE":"U","NORAD_CAT_ID":62688,"ELEMENT_SET_NO":999,"REV_AT_EPOCH":6376,"BSTAR":0.00037313027,"MEAN_MOTION_DOT":0.00010452,"MEAN_MOTION_DDOT":0},{"OBJECT_NAME":"STARLINK-33899","OBJECT_ID":"2025-091AA","EPOCH":"2026-03-09T22:56:04.632288","MEAN_MOTION":15.27585187,"ECCENTRICITY":0.00015557,"INCLINATION":43.0021,"RA_OF_ASC_NODE":50.9499,"ARG_OF_PERICENTER":259.7433,"MEAN_ANOMALY":100.3243,"EPHEMERIS_TYPE":0,"CLASSIFICATION_TYPE":"U","NORAD_CAT_ID":63799,"ELEMENT_SET_NO":999,"REV_AT_EPOCH":4905,"BSTAR":0.0012813296,"MEAN_MOTION_DOT":0.00035171,"MEAN_MOTION_DDOT":0}]
